IRIDIUM 150             
1 43257U 18030J   24068.55392819 -.00000052  00000+0 -25523-4 0  9994
2 43257  86.3917 277.5974 0002253  93.9019 266.2434 14.34217169311102
IRIDIUM 143             
1 43258U 18030K   24068.53490085  .00000161  00000+0  50444-4 0  9996
2 43258  86.3922 277.6654 0002527  88.1511 271.9974 14.34217806311067
IRIDIUM 161             
1 43478U 18047C   24068.72407178  .00000286  00000+0  79085-4 0  9990
2 43478  86.4432  75.5476 0002260  90.8072 269.3388 14.43297033305356
IRIDIUM 152             
1 43479U 18047D   24068.71692465  .00000107  00000+0  31293-4 0  9996
2 43479  86.3906  75.4100 0002357  88.5961 271.5505 14.34218149303459
IRIDIUM 147             
1 43480U 18047E   24068.72326686  .00000240  00000+0  78802-4 0  9993
2 43480  86.3907  75.3978 0002052  92.2012 267.9418 14.34218430303450
IRIDIUM 110             
1 43481U 18047F   24068.72960816  .00000105  00000+0  30336-4 0  9993
2 43481  86.3910  75.4655 0001954  99.7612 260.3804 14.34218367303440
IRIDIUM 162             
1 43482U 18047G   24068.71795442  .00000278  00000+0  76701-4 0  9991
2 43482  86.4431  75.4515 0002176  89.9337 270.2113 14.43275753305343
IRIDIUM 160             
1 43569U 18061A   24068.88474627  .00000221  00000+0  71679-4 0  9997
2 43569  86.3963  43.7512 0001973  76.6608 283.4808 14.34219774294368
